CCSDS_OMM_VERS,COMMENT,CREATION_DATE,ORIGINATOR,OBJECT_NAME,OBJECT_ID,CENTER_NAME,REF_FRAME,TIME_SYSTEM,MEAN_ELEMENT_THEORY,EPOCH,MEAN_MOTION,ECCENTRICITY,INCLINATION,RA_OF_ASC_NODE,ARG_OF_PERICENTER,MEAN_ANOMALY,EPHEMERIS_TYPE,CLASSIFICATION_TYPE,NORAD_CAT_ID,ELEMENT_SET_NO,REV_AT_EPOCH,BSTAR,MEAN_MOTION_DOT,MEAN_MOTION_DDOT,SEMIMAJOR_AXIS,PERIOD,APOAPSIS,PERIAPSIS,OBJECT_TYPE,RCS_SIZE,COUNTRY_CODE,LAUNCH_DATE,SITE,DECAY_DATE,FILE,GP_ID,TLE_LINE0,TLE_LINE1,TLE_LINE2
2.0,GENERATED VIA SPACE-TRACK.ORG API,2022-08-20T07:16:13,18 SPCS,STARLINK-4407,2022-084H,EARTH,TEME,UTC,SGP4,2022-08-20T06:00:00.999648,15.4455514,0.0001684,97.6554,291.9913,104.6429,337.4085,0,U,53196,999,499,-0.028885,-0.01218033,0.0,6810.823,93.231,433.834,431.541,PAYLOAD,LARGE,US,2022-07-22,AFWTR,,3540854,210553590,0 STARLINK-4407,1 53196U 22084H   22232.25001157 -.01218033  00000-0 -28885-1 0  9994,2 53196  97.6554 291.9913 0001684 104.6429 337.4085 15.44555140  4997
2.0,GENERATED VIA SPACE-TRACK.ORG API,2022-08-20T07:16:13,18 SPCS,STARLINK-4404,2022-084G,EARTH,TEME,UTC,SGP4,2022-08-20T06:00:00.999648,15.44738702,0.0001853,97.6554,291.9899,123.5805,321.5974,0,U,53195,999,499,-0.028683,-0.01217246,0.0,6810.283,93.22,433.41,430.886,PAYLOAD,LARGE,US,2022-07-22,AFWTR,,3540854,210553583,0 STARLINK-4404,1 53195U 22084G   22232.25001157 -.01217246  00000-0 -28683-1 0  9994,2 53195  97.6554 291.9899 0001853 123.5805 321.5974 15.44738702  4993
2.0,GENERATED VIA SPACE-TRACK.ORG API,2022-08-20T07:16:13,18 SPCS,STARLINK-4382,2022-084F,EARTH,TEME,UTC,SGP4,2022-08-20T06:00:00.999648,15.44147944,0.0001657,97.6554,291.992,99.7451,336.9839,0,U,53194,999,499,-0.029288,-0.01218016,0.0,6812.02,93.255,435.014,432.756,PAYLOAD,LARGE,US,2022-07-22,AFWTR,,3540853,210553340,0 STARLINK-4382,1 53194U 22084F   22232.25001157 -.01218016  00000-0 -29288-1 0  9991,2 53194  97.6554 291.9920 0001657  99.7451 336.9839 15.44147944  4992
2.0,GENERATED VIA SPACE-TRACK.ORG API,2022-08-20T07:16:13,18 SPCS,STARLINK-4351,2022-084E,EARTH,TEME,UTC,SGP4,2022-08-20T06:00:00.999648,15.49362256,0.0001749,97.6553,291.9903,108.1486,0.1695,0,U,53193,999,499,-0.024508,-0.01220692,0.0,6796.728,92.941,419.781,417.404,PAYLOAD,LARGE,US,2022-07-22,AFWTR,,3540853,210553570,0 STARLINK-4351,1 53193U 22084E   22232.25001157 -.01220692  00000-0 -24508-1 0  9993,2 53193  97.6553 291.9903 0001749 108.1486   0.1695 15.49362256  4996
2.0,GENERATED VIA SPACE-TRACK.ORG API,2022-08-20T07:16:13,18 SPCS,STARLINK-4375,2022-084D,EARTH,TEME,UTC,SGP4,2022-08-20T06:00:00.999648,15.4473867,0.0001809,97.6554,291.9911,120.2437,324.2074,0,U,53192,999,499,-0.028687,-0.01217386,0.0,6810.283,93.22,433.38,430.916,PAYLOAD,LARGE,US,2022-07-22,AFWTR,,3540853,210553576,0 STARLINK-4375,1 53192U 22084D   22232.25001157 -.01217386  00000-0 -28687-1 0  9990,2 53192  97.6554 291.9911 0001809 120.2437 324.2074 15.44738670  4996
2.0,GENERATED VIA SPACE-TRACK.ORG API,2022-08-20T08:16:12,18 SPCS,STARLINK-3579,2022-022AT,EARTH,TEME,UTC,SGP4,2022-08-20T06:00:00.999648,15.08845364,0.0001517,53.2192,63.543,62.6506,66.7222,0,U,51893,999,2743,-0.0025388,-0.00040472,0.0,6917.864,95.437,540.778,538.68,PAYLOAD,LARGE,US,2022-03-03,AFETR,,3540932,210555050,0 STARLINK-3579,1 51893U 22022AT  22232.25001157 -.00040472  00000-0 -25388-2 0  9993,2 51893  53.2192  63.5430 0001517  62.6506  66.7222 15.08845364 27435
2.0,GENERATED VIA SPACE-TRACK.ORG API,2022-08-20T07:16:13,18 SPCS,STARLINK-4332,2022-084B,EARTH,TEME,UTC,SGP4,2022-08-20T06:00:00.999648,15.4716478,0.0001748,97.6554,291.9787,101.872,14.8018,0,U,53190,999,499,-0.026451,-0.01220008,0.0,6803.162,93.073,426.216,423.838,PAYLOAD,LARGE,US,2022-07-22,AFWTR,,3540852,210553329,0 STARLINK-4332,1 53190U 22084B   22232.25001157 -.01220008  00000-0 -26451-1 0  9990,2 53190  97.6554 291.9787 0001748 101.8720  14.8018 15.47164780  4995
2.0,GENERATED VIA SPACE-TRACK.ORG API,2022-08-20T07:36:12,18 SPCS,STARLINK-2260,2021-024V,EARTH,TEME,UTC,SGP4,2022-08-20T06:00:00.999648,15.0641149,0.0001322,53.054,266.3485,70.0205,4.0555,0,U,47996,999,8037,-0.001909,-0.00028611,0.0,6925.313,95.591,548.094,546.263,PAYLOAD,LARGE,US,2021-03-24,AFETR,,3540879,210554073,0 STARLINK-2260,1 47996U 21024V   22232.25001157 -.00028611  00000-0 -19090-2 0  9997,2 47996  53.0540 266.3485 0001322  70.0205   4.0555 15.06411490 80378
2.0,GENERATED VIA SPACE-TRACK.ORG API,2022-08-20T08:16:12,18 SPCS,STARLINK-3551,2022-022AM,EARTH,TEME,UTC,SGP4,2022-08-20T06:00:00.999648,15.08836505,0.0001547,53.2174,63.5619,66.1978,303.1669,0,U,51887,999,2737,-0.0010924,-0.0001763,0.0,6917.891,95.438,540.826,538.686,PAYLOAD,LARGE,US,2022-03-03,AFETR,,3540931,210554939,0 STARLINK-3551,1 51887U 22022AM  22232.25001157 -.00017630  00000-0 -10924-2 0  9996,2 51887  53.2174  63.5619 0001547  66.1978 303.1669 15.08836505 27375
2.0,GENERATED VIA SPACE-TRACK.ORG API,2022-08-20T06:56:12,18 SPCS,STARLINK-4258,2022-083BA,EARTH,TEME,UTC,SGP4,2022-08-20T06:00:00.999648,15.73174929,0.0003735,53.2156,240.2335,9.8002,47.0824,0,U,53180,999,594,9.8246e-05,0.00013176,0.0,6727.967,91.535,352.345,347.319,PAYLOAD,LARGE,US,2022-07-17,AFETR,,3540799,210552581,0 STARLINK-4258,1 53180U 22083BA  22232.25001157  .00013176  00000-0  98246-4 0  9995,2 53180  53.2156 240.2335 0003735   9.8002  47.0824 15.73174929  5948
2.0,GENERATED VIA SPACE-TRACK.ORG API,2022-08-20T06:56:12,18 SPCS,STARLINK-3723,2022-029BC,EARTH,TEME,UTC,SGP4,2022-08-20T06:00:00.999648,15.08811021,0.0001567,53.2173,133.5414,52.5978,131.7544,0,U,52138,999,2506,0.0015246,0.0002404,0.0,6917.969,95.439,540.918,538.75,PAYLOAD,LARGE,US,2022-03-19,AFETR,,3540793,210552502,0 STARLINK-3723,1 52138U 22029BC  22232.25001157  .00024040  00000-0  15246-2 0  9996,2 52138  53.2173 133.5414 0001567  52.5978 131.7544 15.08811021 25063
2.0,GENERATED VIA SPACE-TRACK.ORG API,2022-08-20T08:16:12,18 SPCS,STARLINK-3570,2022-022AG,EARTH,TEME,UTC,SGP4,2022-08-20T06:00:00.999648,15.08831806,0.0001447,53.2158,63.5467,56.765,172.5865,0,U,51882,999,2742,-0.0011671,-0.0001881,0.0,6917.905,95.438,540.771,538.769,PAYLOAD,LARGE,US,2022-03-03,AFETR,,3540930,210554920,0 STARLINK-3570,1 51882U 22022AG  22232.25001157 -.00018810  00000-0 -11671-2 0  9992,2 51882  53.2158  63.5467 0001447  56.7650 172.5865 15.08831806 27425
2.0,GENERATED VIA SPACE-TRACK.ORG API,2022-08-20T06:56:12,18 SPCS,STARLINK-3733,2022-029BB,EARTH,TEME,UTC,SGP4,2022-08-20T06:00:00.999648,15.08815639,0.0001699,53.2172,133.54,50.0061,174.287,0,U,52137,999,2506,0.0015173,0.00023926,0.0,6917.955,95.439,540.995,538.644,PAYLOAD,LARGE,US,2022-03-19,AFETR,,3540792,210552009,0 STARLINK-3733,1 52137U 22029BB  22232.25001157  .00023926  00000-0  15173-2 0  9996,2 52137  53.2172 133.5400 0001699  50.0061 174.2870 15.08815639 25061
2.0,GENERATED VIA SPACE-TRACK.ORG API,2022-08-20T08:16:12,18 SPCS,STARLINK-3504,2022-022AF,EARTH,TEME,UTC,SGP4,2022-08-20T06:00:00.999648,15.08838479,0.0001664,53.2164,63.5555,67.5392,221.8244,0,U,51881,999,2742,-0.0012303,-0.00019814,0.0,6917.885,95.438,540.901,538.599,PAYLOAD,LARGE,US,2022-03-03,AFETR,,3540930,210554916,0 STARLINK-3504,1 51881U 22022AF  22232.25001157 -.00019814  00000-0 -12303-2 0  9999,2 51881  53.2164  63.5555 0001664  67.5392 221.8244 15.08838479 27425
2.0,GENERATED VIA SPACE-TRACK.ORG API,2022-08-20T06:56:12,18 SPCS,STARLINK-3720,2022-029BA,EARTH,TEME,UTC,SGP4,2022-08-20T06:00:00.999648,15.08827534,0.0001847,53.2169,133.5408,51.2563,113.0166,0,U,52136,999,2506,0.0015792,0.00024926,0.0,6917.918,95.438,541.061,538.506,PAYLOAD,LARGE,US,2022-03-19,AFETR,,3540792,210552008,0 STARLINK-3720,1 52136U 22029BA  22232.25001157  .00024926  00000-0  15792-2 0  9993,2 52136  53.2169 133.5408 0001847  51.2563 113.0166 15.08827534 25065
2.0,GENERATED VIA SPACE-TRACK.ORG API,2022-08-20T06:56:12,18 SPCS,STARLINK-3729,2022-029AZ,EARTH,TEME,UTC,SGP4,2022-08-20T06:00:00.999648,15.08813751,0.0001722,53.2174,133.5408,49.3382,155.0202,0,U,52135,999,2506,0.0014939,0.0002355,0.0,6917.961,95.439,541.017,538.634,PAYLOAD,LARGE,US,2022-03-19,AFETR,,3540792,210552487,0 STARLINK-3729,1 52135U 22029AZ  22232.25001157  .00023550  00000-0  14939-2 0  9996,2 52135  53.2174 133.5408 0001722  49.3382 155.0202 15.08813751 25062
2.0,GENERATED VIA SPACE-TRACK.ORG API,2022-08-20T06:56:12,18 SPCS,STARLINK-3721,2022-029AY,EARTH,TEME,UTC,SGP4,2022-08-20T06:00:00.999648,15.08814405,0.0001819,53.2163,133.5409,50.5838,73.7878,0,U,52134,999,2506,0.0015799,0.00024928,0.0,6917.959,95.439,541.082,538.565,PAYLOAD,LARGE,US,2022-03-19,AFETR,,3540809,210552470,0 STARLINK-3721,1 52134U 22029AY  22232.25001157  .00024928  00000-0  15799-2 0  9990,2 52134  53.2163 133.5409 0001819  50.5838  73.7878 15.08814405 25069
2.0,GENERATED VIA SPACE-TRACK.ORG API,2022-08-20T08:16:12,18 SPCS,STARLINK-3575,2022-022AC,EARTH,TEME,UTC,SGP4,2022-08-20T06:00:00.999648,15.08846251,0.0001579,53.2179,73.5444,62.6746,91.6599,0,U,51878,999,2724,-0.0037562,-0.00059584,0.0,6917.861,95.437,540.819,538.634,PAYLOAD,LARGE,US,2022-03-03,AFETR,,3540930,210555019,0 STARLINK-3575,1 51878U 22022AC  22232.25001157 -.00059584  00000-0 -37562-2 0  9997,2 51878  53.2179  73.5444 0001579  62.6746  91.6599 15.08846251 27242
2.0,GENERATED VIA SPACE-TRACK.ORG API,2022-08-20T06:56:12,18 SPCS,STARLINK-3707,2022-029AX,EARTH,TEME,UTC,SGP4,2022-08-20T06:00:00.999648,15.08804196,0.0001565,53.2168,133.541,54.3413,90.0216,0,U,52133,999,2506,0.0015577,0.00024565,0.0,6917.99,95.44,540.937,538.772,PAYLOAD,LARGE,US,2022-03-19,AFETR,,3540791,210552460,0 STARLINK-3707,1 52133U 22029AX  22232.25001157  .00024565  00000-0  15577-2 0  9990,2 52133  53.2168 133.5410 0001565  54.3413  90.0216 15.08804196 25068
